[{"OBJECT_NAME":"STARLINK-3089","OBJECT_ID":"2021-082AN","EPOCH":"2026-03-09T21:50:52.295136","MEAN_MOTION":14.97521969,"ECCENTRICITY":0.00026147,"INCLINATION":69.9979,"RA_OF_ASC_NODE":274.6873,"ARG_OF_PERICENTER":268.4564,"MEAN_ANOMALY":91.6295,"EPHEMERIS_TYPE":0,"CLASSIFICATION_TYPE":"U","NORAD_CAT_ID":49166,"ELEMENT_SET_NO":999,"REV_AT_EPOCH":24768,"BSTAR":1.7192641e-5,"MEAN_MOTION_DOT":1.09e-6,"MEAN_MOTION_DDOT":0},{"OBJECT_NAME":"FENGYUN 1C DEB","OBJECT_ID":"1999-025BYF","EPOCH":"2026-02-08T04:35:15.972576","MEAN_MOTION":14.66466333,"ECCENTRICITY":0.01751215,"INCLINATION":99.0616,"RA_OF_ASC_NODE":209.5417,"ARG_OF_PERICENTER":124.4609,"MEAN_ANOMALY":237.3278,"EPHEMERIS_TYPE":0,"CLASSIFICATION_TYPE":"U","NORAD_CAT_ID":31540,"ELEMENT_SET_NO":999,"REV_AT_EPOCH":99143,"BSTAR":0.0011063664,"MEAN_MOTION_DOT":7.645e-5,"MEAN_MOTION_DDOT":0}]
